STARLINK-5028           
1 53886U 22119A   25259.62614887 -.00001135  00000+0 -53260-4 0  9991
2 53886  53.2183  25.7529 0001230  92.5195 267.5938 15.08841324165403
STARLINK-5029           
1 53887U 22119B   25259.61509392  .00002145  00000+0  15279-3 0  9992
2 53887  53.2190  25.6832 0001733  89.2575 270.8616 15.08850193165405
STARLINK-5034           
1 53888U 22119C   25259.62246564 -.00000540  00000+0 -15826-4 0  9991
2 53888  53.2191  25.7300 0001371  94.7022 265.4127 15.08835311165406
STARLINK-5031           
1 53889U 22119D   25259.61877745  .00000879  00000+0  73281-4 0  9994
2 53889  53.2186  25.7066 0001192  91.0036 269.1093 15.08836779165408
STARLINK-5050           
1 53890U 22119E   25259.57963951  .00000341  00000+0  39488-4 0  9991
2 53890  53.2177 350.5191 0001145  89.3659 270.7465 15.08833600165891
STARLINK-5041           
1 53891U 22119F   25259.61140802  .00002150  00000+0  15317-3 0  9993
2 53891  53.2188  25.6597 0001208  95.2179 264.8951 15.08834022165407
STARLINK-5046           
1 53892U 22119G   25259.59298649  .00000451  00000+0  46448-4 0  9996
2 53892  53.2190  25.5484 0001328  96.1610 263.9534 15.08833225165409
STARLINK-5052           
1 53893U 22119H   25259.60499682  .00000523  00000+0  50965-4 0  9998
2 53893  53.2191  25.6204 0001337  92.1025 268.0120 15.08837596165400
STARLINK-5043           
1 53894U 22119J   25259.60772536 -.00001151  00000+0 -54207-4 0  9994
2 53894  53.2187  25.6408 0001423  88.6193 271.4962 15.08842153165401
STARLINK-5032           
1 53895U 22119K   25259.59667080 -.00000684  00000+0 -24882-4 0  9996
2 53895  53.2196  25.5730 0001259  90.5061 269.6076 15.08835094165403
STARLINK-5037           
1 53896U 22119L   25259.58930257 -.00000711  00000+0 -26586-4 0  9999
2 53896  53.2194  25.5285 0001173  90.5867 269.5260 15.08831690165408
STARLINK-5035           
1 53897U 22119M   25259.60404557  .00000211  00000+0  31327-4 0  9994
2 53897  53.2197  25.6173 0001321  90.1593 269.9550 15.08832457165404
STARLINK-5044           
1 53898U 22119N   25259.57824847 -.00000012  00000+0  17354-4 0  9993
2 53898  53.2192  25.4587 0001178  86.1750 273.9377 15.08832076165406
STARLINK-5042           
1 53899U 22119P   25259.58193447  .00002424  00000+0  17045-3 0  9994
2 53899  53.2209  25.4810 0001544 102.9041 257.2124 15.08816777165407
STARLINK-5045           
1 53900U 22119Q   25259.63711944  .00003169  00000+0  21707-3 0  9998
2 53900  53.2183  25.1131 0001225  92.4151 267.6982 15.08841868165412
STARLINK-5024           
1 53901U 22119R   25259.56871875  .00011032  00000+0  36461-3 0  9992
2 53901  53.2171  18.4112 0001529  71.6661 288.4507 15.31888632165506
STARLINK-5021           
1 53902U 22119S   25259.50557374 -.00000753  00000+0 -29222-4 0  9990
2 53902  53.2194 335.8184 0001263  93.3771 266.7366 15.08833290166096
STARLINK-5022           
1 53903U 22119T   25259.58657671 -.00000294  00000+0 -39884-6 0  9997
2 53903  53.2193  25.5098 0001352 102.5467 257.5676 15.08826899165400
STARLINK-4787           
1 53904U 22119U   25259.63343090 -.00000121  00000+0  10513-4 0  9995
2 53904  53.2192  25.0897 0001155  91.5461 268.5664 15.08834373165410
STARLINK-5003           
1 53905U 22119V   25259.55714824 -.00000624  00000+0 -21125-4 0  9994
2 53905  53.2208  16.0584 0001335 106.1475 253.9664 15.08831600165531
STARLINK-5054           
1 53906U 22119W   25259.57548949  .00000283  00000+0  35852-4 0  9991
2 53906  53.2195  15.4692 0001309  78.7694 281.3446 15.08831920165547
STARLINK-5057           
1 53908U 22119Y   25259.61601236 -.00000940  00000+0 -40975-4 0  9991
2 53908  53.2187  15.7098 0001283  86.7210 273.3929 15.08841427165547
STARLINK-4796           
1 53909U 22119Z   25259.62706770  .00001265  00000+0  97522-4 0  9991
2 53909  53.2187  15.7798 0001079  89.7671 270.3445 15.08841485165546
STARLINK-5056           
1 53910U 22119AA  25258.86672292  .00017413  00000+0  40150-3 0  9995
2 53910  53.2013 313.9667 0001008  78.3671 281.7449 15.42694018166356
STARLINK-5048           
1 53911U 22119AB  25259.61970074 -.00000994  00000+0 -44380-4 0  9997
2 53911  53.2192  15.7346 0001063  95.4416 264.6698 15.08840063165545
STARLINK-5059           
1 53912U 22119AC  25259.56812402 -.00000119  00000+0  10588-4 0  9993
2 53912  53.2190  15.4265 0001281  98.4547 261.6591 15.08829142165545
STARLINK-5053           
1 53913U 22119AD  25259.60127777 -.00001137  00000+0 -53356-4 0  9995
2 53913  53.2193  15.6190 0001338  82.0011 278.1133 15.08840772165543
STARLINK-5040           
1 53914U 22119AE  25259.59759602  .00000636  00000+0  58062-4 0  9992
2 53914  53.2214  15.5982 0001278 101.6694 258.4442 15.08830309165543
STARLINK-5017           
1 53915U 22119AF  25259.61233571 -.00000054  00000+0  14672-4 0  9992
2 53915  53.2189  15.6870 0001055  92.0983 268.0130 15.08829830165547
STARLINK-5051           
1 53916U 22119AG  25259.56260229 -.00000325  00000+0 -23106-5 0  9992
2 53916  53.2180 355.4628 0001467  89.0753 271.0408 15.08854038165835
STARLINK-5036           
1 53917U 22119AH  25259.60496186 -.00000188  00000+0  62787-5 0  9995
2 53917  53.2181  15.6403 0001294  93.8576 266.2564 15.08835776165542
STARLINK-5012           
1 53918U 22119AJ  25259.59391110  .00001168  00000+0  91450-4 0  9991
2 53918  53.2191  15.5721 0000937 112.0874 248.0217 15.08840690165548
STARLINK-5023           
1 53919U 22119AK  25259.59022384 -.00000196  00000+0  57705-5 0  9993
2 53919  53.2188  15.5486 0001103  91.9253 268.1865 15.08834196165541
STARLINK-5025           
1 53920U 22119AL  25259.60961974  .00000378  00000+0  41867-4 0  9996
2 53920  53.2190  15.6647 0001167  87.6908 272.4218 15.08832782165544
STARLINK-5002           
1 53922U 22119AN  25259.57917054  .00000467  00000+0  47405-4 0  9997
2 53922  53.2187  15.4804 0001139  92.6222 267.4901 15.08833279165544
STARLINK-5004           
1 53923U 22119AP  25259.58654276  .00000153  00000+0  27733-4 0  9997
2 53923  53.2185  15.5277 0001219  90.7045 269.4087 15.08831018165545
STARLINK-5001           
1 53924U 22119AQ  25259.59252834  .00000114  00000+0  25281-4 0  9996
2 53924  53.2185  10.5781 0001292  95.2698 264.8442 15.08830608165612
STARLINK-5011           
1 53925U 22119AR  25259.56443776 -.00000302  00000+0 -89984-6 0  9994
2 53925  53.2212  15.4042 0001435  87.1283 272.9873 15.08829562165544
STARLINK-5014           
1 53926U 22119AS  25259.58147158  .00000188  00000+0  29879-4 0  9997
2 53926  53.2191  10.5078 0001523  92.9644 267.1522 15.08838287165629
STARLINK-5008           
1 53927U 22119AT  25259.58337963  .00125009  00000+0  94819-3 0  9998
2 53927  53.1866 293.9971 0006547 340.3434 258.5800 15.71466452  6016
STARLINK-5009           
1 53928U 22119AU  25259.59114453  .00000175  00000+0  29089-4 0  9991
2 53928  53.2190   5.5813 0001453  85.2647 274.8511 15.08836824165685
STARLINK-5018           
1 53929U 22119AV  25259.57284563  .00000164  00000+0  28387-4 0  9998
2 53929  53.2198  16.1383 0001276  94.5232 265.5906 15.08831113165535
STARLINK-5010           
1 53930U 22119AW  25259.57641084 -.00000493  00000+0 -12894-4 0  9998
2 53930  53.2192   5.4875 0001057  93.8724 266.2389 15.08833725165683
STARLINK-5015           
1 53931U 22119AX  25259.58337963  .00025637  00000+0  11329-2 0  9993
2 53931  53.2159   0.0005 0000993  55.3621 226.7795 15.21581066  5802
STARLINK-4772           
1 53932U 22119AY  25259.60819452 -.00000183  00000+0  65628-5 0  9999
2 53932  53.2181   0.6964 0001100  87.0402 273.0716 15.08835545165767
STARLINK-4782           
1 53933U 22119AZ  25259.58746044  .00000311  00000+0  37655-4 0  9993
2 53933  53.2194   5.5576 0001384  94.2215 265.8936 15.08834984165681
STARLINK-4775           
1 53934U 22119BA  25259.60450793  .00000323  00000+0  38374-4 0  9992
2 53934  53.2188   0.6698 0001207  81.3820 278.7309 15.08840064165772
STARLINK-5000           
1 53935U 22119BB  25259.52076294  .00000077  00000+0  22898-4 0  9994
2 53935  53.2186 350.8796 0001159  81.7818 278.3306 15.08839895165882
STARLINK-4791           
1 53936U 22119BC  25259.57503478 -.00000192  00000+0  60208-5 0  9996
2 53936  53.2193   0.4885 0000791  78.2545 281.8536 15.08828048165766
STARLINK-4633           
1 53964U 22125A   25259.37037833 -.00000235  00000+0  33456-5 0  9992
2 53964  53.2143 286.8275 0001519  89.7189 270.3977 15.08836401163004
STARLINK-4578           
1 53965U 22125B   25259.43388582  .00000729  00000+0  63906-4 0  9999
2 53965  53.2157 286.5139 0001594  83.0382 277.0791 15.08831649163019
STARLINK-4635           
1 53966U 22125C   25259.36300400 -.00000146  00000+0  89295-5 0  9999
2 53966  53.2167 286.7820 0001367  86.2281 273.8867 15.08838362163007
STARLINK-4634           
1 53967U 22125D   25259.49180190  .00001075  00000+0  85585-4 0  9994
2 53967  53.2162 286.1630 0001067  80.9438 279.1675 15.08840149163022
STARLINK-4629           
1 53968U 22125E   25259.34826786  .00000804  00000+0  68573-4 0  9994
2 53968  53.2155 286.6898 0001463  82.1173 277.9986 15.08840304163008
STARLINK-4468           
1 53969U 22125F   25259.09067162  .00001078  00000+0  85802-4 0  9990
2 53969  53.2162 287.9240 0001233  84.8340 275.2793 15.08842076162961
STARLINK-4567           
1 53970U 22125G   25259.35794384 -.00000532  00000+0 -15370-4 0  9993
2 53970  53.2150 281.7696 0001206  91.8494 268.2636 15.08835972163084
STARLINK-4639           
1 53971U 22125H   25259.45600005  .00040146  00000+0  93306-3 0  9998
2 53971  53.2180 266.3551 0004619  50.8043 309.3373 15.41963577163303
STARLINK-5156           
1 53973U 22125K   25259.47707854 -.00000264  00000+0  15203-5 0  9992
2 53973  53.2151 286.0713 0001253  89.4957 270.6179 15.08831167163020
STARLINK-5159           
1 53974U 22125L   25259.31324900  .00008520  00000+0  55248-3 0  9996
2 53974  53.2155 266.5307 0001265  94.7674 265.3463 15.08857206163282
